{
  "type": "FeatureCollection",
  "features": [
    {
      "type": "Feature",
      "properties": {
        "LATITUDE": 39.66266,
        "LONGITUDE": -0.24898,
        "BRIGHT_TI4": 299.09,
        "SCAN": 0.49,
        "TRACK": 0.48,
        "ACQ_DATE": "2026-09-28",
        "ACQ_TIME": "0134",
        "SATELLITE": "N",
        "CONFIDENCE": "nominal",
        "VERSION": "2.0NRT",
        "BRIGHT_TI5": 283.35,
        "FRP": 0.98,
        "DAYNIGHT": "N",
        "metvlc_fuente": "NASA FIRMS · Suomi-NPP VIIRS C2",
        "metvlc_periodo_origen": "7d",
        "metvlc_satellite": "Suomi-NPP",
        "metvlc_instrument": "VIIRS",
        "metvlc_time_utc": "2026-09-28T01:34:00+00:00",
        "metvlc_ambito": "Comunitat Valenciana",
        "metvlc_origen_archivo": "SUOMI_VIIRS_C2_Europe_7d.zip"
      },
      "geometry": {
        "type": "Point",
        "coordinates": [
          -0.24898,
          39.66266
        ]
      }
    },
    {
      "type": "Feature",
      "properties": {
        "LATITUDE": 39.2192,
        "LONGITUDE": -0.26697,
        "BRIGHT_TI4": 333.68,
        "SCAN": 0.46,
        "TRACK": 0.47,
        "ACQ_DATE": "2026-09-29",
        "ACQ_TIME": "1238",
        "SATELLITE": "N",
        "CONFIDENCE": "nominal",
        "VERSION": "2.0NRT",
        "BRIGHT_TI5": 293.46,
        "FRP": 3.73,
        "DAYNIGHT": "D",
        "metvlc_fuente": "NASA FIRMS · Suomi-NPP VIIRS C2",
        "metvlc_periodo_origen": "7d",
        "metvlc_satellite": "Suomi-NPP",
        "metvlc_instrument": "VIIRS",
        "metvlc_time_utc": "2026-09-29T12:38:00+00:00",
        "metvlc_ambito": "Comunitat Valenciana",
        "metvlc_origen_archivo": "SUOMI_VIIRS_C2_Europe_7d.zip"
      },
      "geometry": {
        "type": "Point",
        "coordinates": [
          -0.26697,
          39.2192
        ]
      }
    },
    {
      "type": "Feature",
      "properties": {
        "LATITUDE": 39.6649,
        "LONGITUDE": -0.24934,
        "BRIGHT_TI4": 297.49,
        "SCAN": 0.4,
        "TRACK": 0.37,
        "ACQ_DATE": "2026-09-28",
        "ACQ_TIME": "0154",
        "SATELLITE": "N20",
        "CONFIDENCE": "nominal",
        "VERSION": "2.0NRT",
        "BRIGHT_TI5": 280.73,
        "FRP": 0.62,
        "DAYNIGHT": "N",
        "metvlc_fuente": "NASA FIRMS · NOAA-20 VIIRS C2",
        "metvlc_periodo_origen": "7d",
        "metvlc_satellite": "NOAA-20",
        "metvlc_instrument": "VIIRS",
        "metvlc_time_utc": "2026-09-28T01:54:00+00:00",
        "metvlc_ambito": "Comunitat Valenciana",
        "metvlc_origen_archivo": "J1_VIIRS_C2_Europe_7d.zip"
      },
      "geometry": {
        "type": "Point",
        "coordinates": [
          -0.24934,
          39.6649
        ]
      }
    },
    {
      "type": "Feature",
      "properties": {
        "LATITUDE": 39.22293,
        "LONGITUDE": -0.31481,
        "BRIGHT_TI4": 331.06,
        "SCAN": 0.43,
        "TRACK": 0.38,
        "ACQ_DATE": "2026-09-28",
        "ACQ_TIME": "1316",
        "SATELLITE": "N20",
        "CONFIDENCE": "nominal",
        "VERSION": "2.0NRT",
        "BRIGHT_TI5": 284.36,
        "FRP": 3.0,
        "DAYNIGHT": "D",
        "metvlc_fuente": "NASA FIRMS · NOAA-20 VIIRS C2",
        "metvlc_periodo_origen": "7d",
        "metvlc_satellite": "NOAA-20",
        "metvlc_instrument": "VIIRS",
        "metvlc_time_utc": "2026-09-28T13:16:00+00:00",
        "metvlc_ambito": "Comunitat Valenciana",
        "metvlc_origen_archivo": "J1_VIIRS_C2_Europe_7d.zip"
      },
      "geometry": {
        "type": "Point",
        "coordinates": [
          -0.31481,
          39.22293
        ]
      }
    },
    {
      "type": "Feature",
      "properties": {
        "LATITUDE": 39.27511,
        "LONGITUDE": -0.33586,
        "BRIGHT_TI4": 350.27,
        "SCAN": 0.49,
        "TRACK": 0.65,
        "ACQ_DATE": "2026-09-29",
        "ACQ_TIME": "1202",
        "SATELLITE": "N21",
        "CONFIDENCE": "nominal",
        "VERSION": "2.0NRT",
        "BRIGHT_TI5": 289.94,
        "FRP": 10.6,
        "DAYNIGHT": "D",
        "metvlc_fuente": "NASA FIRMS · NOAA-21 VIIRS C2",
        "metvlc_periodo_origen": "7d",
        "metvlc_satellite": "NOAA-21",
        "metvlc_instrument": "VIIRS",
        "metvlc_time_utc": "2026-09-29T12:02:00+00:00",
        "metvlc_ambito": "Comunitat Valenciana",
        "metvlc_origen_archivo": "J2_VIIRS_C2_Europe_7d.zip"
      },
      "geometry": {
        "type": "Point",
        "coordinates": [
          -0.33586,
          39.27511
        ]
      }
    },
    {
      "type": "Feature",
      "properties": {
        "LATITUDE": 39.18273,
        "LONGITUDE": -0.33206,
        "BRIGHT_TI4": 338.36,
        "SCAN": 0.34,
        "TRACK": 0.56,
        "ACQ_DATE": "2026-09-29",
        "ACQ_TIME": "1342",
        "SATELLITE": "N21",
        "CONFIDENCE": "nominal",
        "VERSION": "2.0NRT",
        "BRIGHT_TI5": 292.85,
        "FRP": 3.34,
        "DAYNIGHT": "D",
        "metvlc_fuente": "NASA FIRMS · NOAA-21 VIIRS C2",
        "metvlc_periodo_origen": "7d",
        "metvlc_satellite": "NOAA-21",
        "metvlc_instrument": "VIIRS",
        "metvlc_time_utc": "2026-09-29T13:42:00+00:00",
        "metvlc_ambito": "Comunitat Valenciana",
        "metvlc_origen_archivo": "J2_VIIRS_C2_Europe_7d.zip"
      },
      "geometry": {
        "type": "Point",
        "coordinates": [
          -0.33206,
          39.18273
        ]
      }
    }
  ]
}