{
  "type": "FeatureCollection",
  "features": [
    {
      "type": "Feature",
      "properties": {
        "name": "VIIRS FIRE",
        "description": "Latitude :       39.952 <br> Longitude :       -0.003<br>Date Acquired : 2026-10-04 <br>Time: 01:22 UTC<br>Confidence [0-100] : nominal<br>Satellite : SNPP <br><br>For more information, visit <br><a href='https://earthdata.nasa.gov/data/nrt-data/firms'>https://earthdata.nasa.gov/data/nrt-data/firms</a> and <a href=\"https://earthdata.nasa.gov/faq/firms-faq\">https://earthdata.nasa.gov/faq/firms-faq </a><br><br>To subscribe to fire email alerts, visit <a href='https://earthdata.nasa.gov/data/nrt-data/firms/email-alerts'>https://earthdata.nasa.gov/data/nrt-data/firms/email-alerts/</a> <br><br>&bull; <a href='https://earthdata.nasa.gov/data/nrt-data/disclaimer'>FIRMS Disclaimer</a><br><br>",
        "metvlc_fuente": "NASA FIRMS · Suomi-NPP VIIRS C2",
        "metvlc_periodo_origen": "24h",
        "metvlc_satellite": "Suomi-NPP",
        "metvlc_instrument": "VIIRS",
        "metvlc_time_utc": null,
        "metvlc_ambito": "Comunitat Valenciana",
        "metvlc_origen_archivo": "SUOMI_VIIRS_C2_Europe_24h.kml"
      },
      "geometry": {
        "type": "Point",
        "coordinates": [
          -0.00304,
          39.95213
        ]
      }
    },
    {
      "type": "Feature",
      "properties": {
        "name": "VIIRS FIRE",
        "description": "Latitude :       38.377 <br> Longitude :       -0.545<br>Date Acquired : 2026-10-04 <br>Time: 01:22 UTC<br>Confidence [0-100] : nominal<br>Satellite : SNPP <br><br>For more information, visit <br><a href='https://earthdata.nasa.gov/data/nrt-data/firms'>https://earthdata.nasa.gov/data/nrt-data/firms</a> and <a href=\"https://earthdata.nasa.gov/faq/firms-faq\">https://earthdata.nasa.gov/faq/firms-faq </a><br><br>To subscribe to fire email alerts, visit <a href='https://earthdata.nasa.gov/data/nrt-data/firms/email-alerts'>https://earthdata.nasa.gov/data/nrt-data/firms/email-alerts/</a> <br><br>&bull; <a href='https://earthdata.nasa.gov/data/nrt-data/disclaimer'>FIRMS Disclaimer</a><br><br>",
        "metvlc_fuente": "NASA FIRMS · Suomi-NPP VIIRS C2",
        "metvlc_periodo_origen": "24h",
        "metvlc_satellite": "Suomi-NPP",
        "metvlc_instrument": "VIIRS",
        "metvlc_time_utc": null,
        "metvlc_ambito": "Comunitat Valenciana",
        "metvlc_origen_archivo": "SUOMI_VIIRS_C2_Europe_24h.kml"
      },
      "geometry": {
        "type": "Point",
        "coordinates": [
          -0.54476,
          38.37706
        ]
      }
    },
    {
      "type": "Feature",
      "properties": {
        "name": "VIIRS FIRE",
        "description": "Latitude :       38.379 <br> Longitude :       -0.542<br>Date Acquired : 2026-10-04 <br>Time: 03:02 UTC<br>Confidence [0-100] : nominal<br>Satellite : SNPP <br><br>For more information, visit <br><a href='https://earthdata.nasa.gov/data/nrt-data/firms'>https://earthdata.nasa.gov/data/nrt-data/firms</a> and <a href=\"https://earthdata.nasa.gov/faq/firms-faq\">https://earthdata.nasa.gov/faq/firms-faq </a><br><br>To subscribe to fire email alerts, visit <a href='https://earthdata.nasa.gov/data/nrt-data/firms/email-alerts'>https://earthdata.nasa.gov/data/nrt-data/firms/email-alerts/</a> <br><br>&bull; <a href='https://earthdata.nasa.gov/data/nrt-data/disclaimer'>FIRMS Disclaimer</a><br><br>",
        "metvlc_fuente": "NASA FIRMS · Suomi-NPP VIIRS C2",
        "metvlc_periodo_origen": "24h",
        "metvlc_satellite": "Suomi-NPP",
        "metvlc_instrument": "VIIRS",
        "metvlc_time_utc": null,
        "metvlc_ambito": "Comunitat Valenciana",
        "metvlc_origen_archivo": "SUOMI_VIIRS_C2_Europe_24h.kml"
      },
      "geometry": {
        "type": "Point",
        "coordinates": [
          -0.54216,
          38.37905
        ]
      }
    },
    {
      "type": "Feature",
      "properties": {
        "name": "VIIRS FIRE",
        "description": "Latitude :       38.378 <br> Longitude :       -0.545<br>Date Acquired : 2026-10-03 <br>Time: 02:00 UTC<br>Confidence [0-100] : nominal<br>Satellite : N20 <br><br>For more information, visit <br><a href='https://earthdata.nasa.gov/data/nrt-data/firms'>https://earthdata.nasa.gov/data/nrt-data/firms</a> and <a href=\"https://earthdata.nasa.gov/faq/firms-faq\">https://earthdata.nasa.gov/faq/firms-faq </a><br><br>To subscribe to fire email alerts, visit <a href='https://earthdata.nasa.gov/data/nrt-data/firms/email-alerts'>https://earthdata.nasa.gov/data/nrt-data/firms/email-alerts/</a> <br><br>&bull; <a href='https://earthdata.nasa.gov/data/nrt-data/disclaimer'>FIRMS Disclaimer</a><br><br>",
        "metvlc_fuente": "NASA FIRMS · NOAA-20 VIIRS C2",
        "metvlc_periodo_origen": "24h",
        "metvlc_satellite": "NOAA-20",
        "metvlc_instrument": "VIIRS",
        "metvlc_time_utc": null,
        "metvlc_ambito": "Comunitat Valenciana",
        "metvlc_origen_archivo": "J1_VIIRS_C2_Europe_24h.kml"
      },
      "geometry": {
        "type": "Point",
        "coordinates": [
          -0.54476,
          38.37837
        ]
      }
    },
    {
      "type": "Feature",
      "properties": {
        "name": "VIIRS FIRE",
        "description": "Latitude :       38.377 <br> Longitude :       -0.548<br>Date Acquired : 2026-10-04 <br>Time: 01:43 UTC<br>Confidence [0-100] : nominal<br>Satellite : N20 <br><br>For more information, visit <br><a href='https://earthdata.nasa.gov/data/nrt-data/firms'>https://earthdata.nasa.gov/data/nrt-data/firms</a> and <a href=\"https://earthdata.nasa.gov/faq/firms-faq\">https://earthdata.nasa.gov/faq/firms-faq </a><br><br>To subscribe to fire email alerts, visit <a href='https://earthdata.nasa.gov/data/nrt-data/firms/email-alerts'>https://earthdata.nasa.gov/data/nrt-data/firms/email-alerts/</a> <br><br>&bull; <a href='https://earthdata.nasa.gov/data/nrt-data/disclaimer'>FIRMS Disclaimer</a><br><br>",
        "metvlc_fuente": "NASA FIRMS · NOAA-20 VIIRS C2",
        "metvlc_periodo_origen": "24h",
        "metvlc_satellite": "NOAA-20",
        "metvlc_instrument": "VIIRS",
        "metvlc_time_utc": null,
        "metvlc_ambito": "Comunitat Valenciana",
        "metvlc_origen_archivo": "J1_VIIRS_C2_Europe_24h.kml"
      },
      "geometry": {
        "type": "Point",
        "coordinates": [
          -0.54772,
          38.37711
        ]
      }
    },
    {
      "type": "Feature",
      "properties": {
        "name": "VIIRS FIRE",
        "description": "Latitude :       38.375 <br> Longitude :       -0.544<br>Date Acquired : 2026-10-04 <br>Time: 02:26 UTC<br>Confidence [0-100] : nominal<br>Satellite : N21 <br><br>For more information, visit <br><a href='https://earthdata.nasa.gov/data/nrt-data/firms'>https://earthdata.nasa.gov/data/nrt-data/firms</a> and <a href=\"https://earthdata.nasa.gov/faq/firms-faq\">https://earthdata.nasa.gov/faq/firms-faq </a><br><br>To subscribe to fire email alerts, visit <a href='https://earthdata.nasa.gov/data/nrt-data/firms/email-alerts'>https://earthdata.nasa.gov/data/nrt-data/firms/email-alerts/</a> <br><br>&bull; <a href='https://earthdata.nasa.gov/data/nrt-data/disclaimer'>FIRMS Disclaimer</a><br><br>",
        "metvlc_fuente": "NASA FIRMS · NOAA-21 VIIRS C2",
        "metvlc_periodo_origen": "24h",
        "metvlc_satellite": "NOAA-21",
        "metvlc_instrument": "VIIRS",
        "metvlc_time_utc": null,
        "metvlc_ambito": "Comunitat Valenciana",
        "metvlc_origen_archivo": "J2_VIIRS_C2_Europe_24h.kml"
      },
      "geometry": {
        "type": "Point",
        "coordinates": [
          -0.544,
          38.37482
        ]
      }
    }
  ]
}