{
  "type": "FeatureCollection",
  "features": [
    {
      "type": "Feature",
      "properties": {
        "LATITUDE": 39.95213,
        "LONGITUDE": -0.00304,
        "BRIGHT_TI4": 300.15,
        "SCAN": 0.35,
        "TRACK": 0.57,
        "ACQ_DATE": "2026-10-04",
        "ACQ_TIME": "0122",
        "SATELLITE": "N",
        "CONFIDENCE": "nominal",
        "VERSION": "2.0NRT",
        "BRIGHT_TI5": 287.33,
        "FRP": 0.77,
        "DAYNIGHT": "N",
        "metvlc_fuente": "NASA FIRMS · Suomi-NPP VIIRS C2",
        "metvlc_periodo_origen": "7d",
        "metvlc_satellite": "Suomi-NPP",
        "metvlc_instrument": "VIIRS",
        "metvlc_time_utc": "2026-10-04T01:22:00+00:00",
        "metvlc_ambito": "Comunitat Valenciana",
        "metvlc_origen_archivo": "SUOMI_VIIRS_C2_Europe_7d.zip"
      },
      "geometry": {
        "type": "Point",
        "coordinates": [
          -0.00304,
          39.95213
        ]
      }
    },
    {
      "type": "Feature",
      "properties": {
        "LATITUDE": 38.37706,
        "LONGITUDE": -0.54476,
        "BRIGHT_TI4": 302.96,
        "SCAN": 0.36,
        "TRACK": 0.58,
        "ACQ_DATE": "2026-10-04",
        "ACQ_TIME": "0122",
        "SATELLITE": "N",
        "CONFIDENCE": "nominal",
        "VERSION": "2.0NRT",
        "BRIGHT_TI5": 286.74,
        "FRP": 0.44,
        "DAYNIGHT": "N",
        "metvlc_fuente": "NASA FIRMS · Suomi-NPP VIIRS C2",
        "metvlc_periodo_origen": "7d",
        "metvlc_satellite": "Suomi-NPP",
        "metvlc_instrument": "VIIRS",
        "metvlc_time_utc": "2026-10-04T01:22:00+00:00",
        "metvlc_ambito": "Comunitat Valenciana",
        "metvlc_origen_archivo": "SUOMI_VIIRS_C2_Europe_7d.zip"
      },
      "geometry": {
        "type": "Point",
        "coordinates": [
          -0.54476,
          38.37706
        ]
      }
    },
    {
      "type": "Feature",
      "properties": {
        "LATITUDE": 38.37905,
        "LONGITUDE": -0.54216,
        "BRIGHT_TI4": 298.72,
        "SCAN": 0.46,
        "TRACK": 0.63,
        "ACQ_DATE": "2026-10-04",
        "ACQ_TIME": "0302",
        "SATELLITE": "N",
        "CONFIDENCE": "nominal",
        "VERSION": "2.0NRT",
        "BRIGHT_TI5": 281.81,
        "FRP": 0.36,
        "DAYNIGHT": "N",
        "metvlc_fuente": "NASA FIRMS · Suomi-NPP VIIRS C2",
        "metvlc_periodo_origen": "7d",
        "metvlc_satellite": "Suomi-NPP",
        "metvlc_instrument": "VIIRS",
        "metvlc_time_utc": "2026-10-04T03:02:00+00:00",
        "metvlc_ambito": "Comunitat Valenciana",
        "metvlc_origen_archivo": "SUOMI_VIIRS_C2_Europe_7d.zip"
      },
      "geometry": {
        "type": "Point",
        "coordinates": [
          -0.54216,
          38.37905
        ]
      }
    },
    {
      "type": "Feature",
      "properties": {
        "LATITUDE": 38.37811,
        "LONGITUDE": -0.54507,
        "BRIGHT_TI4": 300.94,
        "SCAN": 0.53,
        "TRACK": 0.5,
        "ACQ_DATE": "2026-10-05",
        "ACQ_TIME": "0243",
        "SATELLITE": "N",
        "CONFIDENCE": "nominal",
        "VERSION": "2.0NRT",
        "BRIGHT_TI5": 286.08,
        "FRP": 1.3,
        "DAYNIGHT": "N",
        "metvlc_fuente": "NASA FIRMS · Suomi-NPP VIIRS C2",
        "metvlc_periodo_origen": "7d",
        "metvlc_satellite": "Suomi-NPP",
        "metvlc_instrument": "VIIRS",
        "metvlc_time_utc": "2026-10-05T02:43:00+00:00",
        "metvlc_ambito": "Comunitat Valenciana",
        "metvlc_origen_archivo": "SUOMI_VIIRS_C2_Europe_7d.zip"
      },
      "geometry": {
        "type": "Point",
        "coordinates": [
          -0.54507,
          38.37811
        ]
      }
    },
    {
      "type": "Feature",
      "properties": {
        "LATITUDE": 39.20671,
        "LONGITUDE": -0.25904,
        "BRIGHT_TI4": 331.9,
        "SCAN": 0.38,
        "TRACK": 0.36,
        "ACQ_DATE": "2026-10-08",
        "ACQ_TIME": "1310",
        "SATELLITE": "N",
        "CONFIDENCE": "nominal",
        "VERSION": "2.0NRT",
        "BRIGHT_TI5": 294.97,
        "FRP": 2.06,
        "DAYNIGHT": "D",
        "metvlc_fuente": "NASA FIRMS · Suomi-NPP VIIRS C2",
        "metvlc_periodo_origen": "7d",
        "metvlc_satellite": "Suomi-NPP",
        "metvlc_instrument": "VIIRS",
        "metvlc_time_utc": "2026-10-08T13:10:00+00:00",
        "metvlc_ambito": "Comunitat Valenciana",
        "metvlc_origen_archivo": "SUOMI_VIIRS_C2_Europe_7d.zip"
      },
      "geometry": {
        "type": "Point",
        "coordinates": [
          -0.25904,
          39.20671
        ]
      }
    },
    {
      "type": "Feature",
      "properties": {
        "LATITUDE": 38.37452,
        "LONGITUDE": -0.5433,
        "BRIGHT_TI4": 298.49,
        "SCAN": 0.6,
        "TRACK": 0.53,
        "ACQ_DATE": "2026-10-09",
        "ACQ_TIME": "0128",
        "SATELLITE": "N",
        "CONFIDENCE": "nominal",
        "VERSION": "2.0NRT",
        "BRIGHT_TI5": 287.5,
        "FRP": 0.61,
        "DAYNIGHT": "N",
        "metvlc_fuente": "NASA FIRMS · Suomi-NPP VIIRS C2",
        "metvlc_periodo_origen": "7d",
        "metvlc_satellite": "Suomi-NPP",
        "metvlc_instrument": "VIIRS",
        "metvlc_time_utc": "2026-10-09T01:28:00+00:00",
        "metvlc_ambito": "Comunitat Valenciana",
        "metvlc_origen_archivo": "SUOMI_VIIRS_C2_Europe_7d.zip"
      },
      "geometry": {
        "type": "Point",
        "coordinates": [
          -0.5433,
          38.37452
        ]
      }
    },
    {
      "type": "Feature",
      "properties": {
        "LATITUDE": 38.37693,
        "LONGITUDE": -0.54369,
        "BRIGHT_TI4": 297.18,
        "SCAN": 0.55,
        "TRACK": 0.68,
        "ACQ_DATE": "2026-10-09",
        "ACQ_TIME": "0308",
        "SATELLITE": "N",
        "CONFIDENCE": "nominal",
        "VERSION": "2.0NRT",
        "BRIGHT_TI5": 285.46,
        "FRP": 2.61,
        "DAYNIGHT": "N",
        "metvlc_fuente": "NASA FIRMS · Suomi-NPP VIIRS C2",
        "metvlc_periodo_origen": "7d",
        "metvlc_satellite": "Suomi-NPP",
        "metvlc_instrument": "VIIRS",
        "metvlc_time_utc": "2026-10-09T03:08:00+00:00",
        "metvlc_ambito": "Comunitat Valenciana",
        "metvlc_origen_archivo": "SUOMI_VIIRS_C2_Europe_7d.zip"
      },
      "geometry": {
        "type": "Point",
        "coordinates": [
          -0.54369,
          38.37693
        ]
      }
    },
    {
      "type": "Feature",
      "properties": {
        "LATITUDE": 38.37837,
        "LONGITUDE": -0.54476,
        "BRIGHT_TI4": 306.36,
        "SCAN": 0.38,
        "TRACK": 0.36,
        "ACQ_DATE": "2026-10-03",
        "ACQ_TIME": "0200",
        "SATELLITE": "N20",
        "CONFIDENCE": "nominal",
        "VERSION": "2.0NRT",
        "BRIGHT_TI5": 288.45,
        "FRP": 1.03,
        "DAYNIGHT": "N",
        "metvlc_fuente": "NASA FIRMS · NOAA-20 VIIRS C2",
        "metvlc_periodo_origen": "7d",
        "metvlc_satellite": "NOAA-20",
        "metvlc_instrument": "VIIRS",
        "metvlc_time_utc": "2026-10-03T02:00:00+00:00",
        "metvlc_ambito": "Comunitat Valenciana",
        "metvlc_origen_archivo": "J1_VIIRS_C2_Europe_7d.zip"
      },
      "geometry": {
        "type": "Point",
        "coordinates": [
          -0.54476,
          38.37837
        ]
      }
    },
    {
      "type": "Feature",
      "properties": {
        "LATITUDE": 38.37711,
        "LONGITUDE": -0.54772,
        "BRIGHT_TI4": 300.37,
        "SCAN": 0.5,
        "TRACK": 0.41,
        "ACQ_DATE": "2026-10-04",
        "ACQ_TIME": "0143",
        "SATELLITE": "N20",
        "CONFIDENCE": "nominal",
        "VERSION": "2.0NRT",
        "BRIGHT_TI5": 288.59,
        "FRP": 0.63,
        "DAYNIGHT": "N",
        "metvlc_fuente": "NASA FIRMS · NOAA-20 VIIRS C2",
        "metvlc_periodo_origen": "7d",
        "metvlc_satellite": "NOAA-20",
        "metvlc_instrument": "VIIRS",
        "metvlc_time_utc": "2026-10-04T01:43:00+00:00",
        "metvlc_ambito": "Comunitat Valenciana",
        "metvlc_origen_archivo": "J1_VIIRS_C2_Europe_7d.zip"
      },
      "geometry": {
        "type": "Point",
        "coordinates": [
          -0.54772,
          38.37711
        ]
      }
    },
    {
      "type": "Feature",
      "properties": {
        "LATITUDE": 39.66377,
        "LONGITUDE": -0.24874,
        "BRIGHT_TI4": 298.49,
        "SCAN": 0.32,
        "TRACK": 0.54,
        "ACQ_DATE": "2026-10-06",
        "ACQ_TIME": "0243",
        "SATELLITE": "N20",
        "CONFIDENCE": "nominal",
        "VERSION": "2.0NRT",
        "BRIGHT_TI5": 279.69,
        "FRP": 1.34,
        "DAYNIGHT": "N",
        "metvlc_fuente": "NASA FIRMS · NOAA-20 VIIRS C2",
        "metvlc_periodo_origen": "7d",
        "metvlc_satellite": "NOAA-20",
        "metvlc_instrument": "VIIRS",
        "metvlc_time_utc": "2026-10-06T02:43:00+00:00",
        "metvlc_ambito": "Comunitat Valenciana",
        "metvlc_origen_archivo": "J1_VIIRS_C2_Europe_7d.zip"
      },
      "geometry": {
        "type": "Point",
        "coordinates": [
          -0.24874,
          39.66377
        ]
      }
    },
    {
      "type": "Feature",
      "properties": {
        "LATITUDE": 39.95236,
        "LONGITUDE": -0.00464,
        "BRIGHT_TI4": 302.73,
        "SCAN": 0.39,
        "TRACK": 0.36,
        "ACQ_DATE": "2026-10-08",
        "ACQ_TIME": "0206",
        "SATELLITE": "N20",
        "CONFIDENCE": "nominal",
        "VERSION": "2.0NRT",
        "BRIGHT_TI5": 290.88,
        "FRP": 0.93,
        "DAYNIGHT": "N",
        "metvlc_fuente": "NASA FIRMS · NOAA-20 VIIRS C2",
        "metvlc_periodo_origen": "7d",
        "metvlc_satellite": "NOAA-20",
        "metvlc_instrument": "VIIRS",
        "metvlc_time_utc": "2026-10-08T02:06:00+00:00",
        "metvlc_ambito": "Comunitat Valenciana",
        "metvlc_origen_archivo": "J1_VIIRS_C2_Europe_7d.zip"
      },
      "geometry": {
        "type": "Point",
        "coordinates": [
          -0.00464,
          39.95236
        ]
      }
    },
    {
      "type": "Feature",
      "properties": {
        "LATITUDE": 39.66436,
        "LONGITUDE": -0.24598,
        "BRIGHT_TI4": 302.94,
        "SCAN": 0.39,
        "TRACK": 0.36,
        "ACQ_DATE": "2026-10-08",
        "ACQ_TIME": "0206",
        "SATELLITE": "N20",
        "CONFIDENCE": "nominal",
        "VERSION": "2.0NRT",
        "BRIGHT_TI5": 289.75,
        "FRP": 0.31,
        "DAYNIGHT": "N",
        "metvlc_fuente": "NASA FIRMS · NOAA-20 VIIRS C2",
        "metvlc_periodo_origen": "7d",
        "metvlc_satellite": "NOAA-20",
        "metvlc_instrument": "VIIRS",
        "metvlc_time_utc": "2026-10-08T02:06:00+00:00",
        "metvlc_ambito": "Comunitat Valenciana",
        "metvlc_origen_archivo": "J1_VIIRS_C2_Europe_7d.zip"
      },
      "geometry": {
        "type": "Point",
        "coordinates": [
          -0.24598,
          39.66436
        ]
      }
    },
    {
      "type": "Feature",
      "properties": {
        "LATITUDE": 38.37509,
        "LONGITUDE": -0.54455,
        "BRIGHT_TI4": 296.32,
        "SCAN": 0.48,
        "TRACK": 0.48,
        "ACQ_DATE": "2026-10-10",
        "ACQ_TIME": "0130",
        "SATELLITE": "N20",
        "CONFIDENCE": "nominal",
        "VERSION": "2.0NRT",
        "BRIGHT_TI5": 285.92,
        "FRP": 0.72,
        "DAYNIGHT": "N",
        "metvlc_fuente": "NASA FIRMS · NOAA-20 VIIRS C2",
        "metvlc_periodo_origen": "7d",
        "metvlc_satellite": "NOAA-20",
        "metvlc_instrument": "VIIRS",
        "metvlc_time_utc": "2026-10-10T01:30:00+00:00",
        "metvlc_ambito": "Comunitat Valenciana",
        "metvlc_origen_archivo": "J1_VIIRS_C2_Europe_7d.zip"
      },
      "geometry": {
        "type": "Point",
        "coordinates": [
          -0.54455,
          38.37509
        ]
      }
    },
    {
      "type": "Feature",
      "properties": {
        "LATITUDE": 38.37482,
        "LONGITUDE": -0.544,
        "BRIGHT_TI4": 305.04,
        "SCAN": 0.46,
        "TRACK": 0.47,
        "ACQ_DATE": "2026-10-04",
        "ACQ_TIME": "0226",
        "SATELLITE": "N21",
        "CONFIDENCE": "nominal",
        "VERSION": "2.0NRT",
        "BRIGHT_TI5": 289.06,
        "FRP": 1.4,
        "DAYNIGHT": "N",
        "metvlc_fuente": "NASA FIRMS · NOAA-21 VIIRS C2",
        "metvlc_periodo_origen": "7d",
        "metvlc_satellite": "NOAA-21",
        "metvlc_instrument": "VIIRS",
        "metvlc_time_utc": "2026-10-04T02:26:00+00:00",
        "metvlc_ambito": "Comunitat Valenciana",
        "metvlc_origen_archivo": "J2_VIIRS_C2_Europe_7d.zip"
      },
      "geometry": {
        "type": "Point",
        "coordinates": [
          -0.544,
          38.37482
        ]
      }
    },
    {
      "type": "Feature",
      "properties": {
        "LATITUDE": 39.8651,
        "LONGITUDE": -0.10213,
        "BRIGHT_TI4": 327.82,
        "SCAN": 0.39,
        "TRACK": 0.36,
        "ACQ_DATE": "2026-10-07",
        "ACQ_TIME": "1253",
        "SATELLITE": "N21",
        "CONFIDENCE": "nominal",
        "VERSION": "2.0NRT",
        "BRIGHT_TI5": 298.83,
        "FRP": 2.29,
        "DAYNIGHT": "D",
        "metvlc_fuente": "NASA FIRMS · NOAA-21 VIIRS C2",
        "metvlc_periodo_origen": "7d",
        "metvlc_satellite": "NOAA-21",
        "metvlc_instrument": "VIIRS",
        "metvlc_time_utc": "2026-10-07T12:53:00+00:00",
        "metvlc_ambito": "Comunitat Valenciana",
        "metvlc_origen_archivo": "J2_VIIRS_C2_Europe_7d.zip"
      },
      "geometry": {
        "type": "Point",
        "coordinates": [
          -0.10213,
          39.8651
        ]
      }
    },
    {
      "type": "Feature",
      "properties": {
        "LATITUDE": 39.66193,
        "LONGITUDE": -0.24895,
        "BRIGHT_TI4": 301.17,
        "SCAN": 0.35,
        "TRACK": 0.57,
        "ACQ_DATE": "2026-10-08",
        "ACQ_TIME": "0109",
        "SATELLITE": "N21",
        "CONFIDENCE": "nominal",
        "VERSION": "2.0NRT",
        "BRIGHT_TI5": 288.85,
        "FRP": 1.06,
        "DAYNIGHT": "N",
        "metvlc_fuente": "NASA FIRMS · NOAA-21 VIIRS C2",
        "metvlc_periodo_origen": "7d",
        "metvlc_satellite": "NOAA-21",
        "metvlc_instrument": "VIIRS",
        "metvlc_time_utc": "2026-10-08T01:09:00+00:00",
        "metvlc_ambito": "Comunitat Valenciana",
        "metvlc_origen_archivo": "J2_VIIRS_C2_Europe_7d.zip"
      },
      "geometry": {
        "type": "Point",
        "coordinates": [
          -0.24895,
          39.66193
        ]
      }
    },
    {
      "type": "Feature",
      "properties": {
        "LATITUDE": 38.3764,
        "LONGITUDE": -0.54351,
        "BRIGHT_TI4": 304.47,
        "SCAN": 0.49,
        "TRACK": 0.4,
        "ACQ_DATE": "2026-10-10",
        "ACQ_TIME": "0213",
        "SATELLITE": "N21",
        "CONFIDENCE": "nominal",
        "VERSION": "2.0NRT",
        "BRIGHT_TI5": 287.23,
        "FRP": 1.54,
        "DAYNIGHT": "N",
        "metvlc_fuente": "NASA FIRMS · NOAA-21 VIIRS C2",
        "metvlc_periodo_origen": "7d",
        "metvlc_satellite": "NOAA-21",
        "metvlc_instrument": "VIIRS",
        "metvlc_time_utc": "2026-10-10T02:13:00+00:00",
        "metvlc_ambito": "Comunitat Valenciana",
        "metvlc_origen_archivo": "J2_VIIRS_C2_Europe_7d.zip"
      },
      "geometry": {
        "type": "Point",
        "coordinates": [
          -0.54351,
          38.3764
        ]
      }
    }
  ]
}